NORAD_CAT_ID,OBJECT_NAME,OBJECT_TYPE,EPOCH,MEAN_MOTION,ECCENTRICITY,INCLINATION,RA_OF_ASC_NODE,ARG_OF_PERICENTER,MEAN_ANOMALY,BSTAR,MEAN_MOTION_DOT,MEAN_MOTION_DDOT,TLE_LINE0,TLE_LINE1,TLE_LINE2,SEMIMAJOR_AXIS,PERIOD,APOGEE,PERIGEE,DECAYED
56771.0,STARLINK-6339,PAYLOAD,2023-09-04 16:59:50,15.69932367,0.000336,69.998,142.1812,267.0702,93.011,1.8296e-05,1.988e-05,0.0,0 STARLINK-6339,1 56771U 23078E   23247.70821976  .00001988  00000-0  18296-4 0  9990,2 56771  69.9980 142.1812 0003360 267.0702  93.0110 15.69932367 15443,6737.227,91.724,361.356,356.829,0.0
56771.0,STARLINK-6339,PAYLOAD,2023-09-05 02:10:21,15.69925486,0.0003173,69.998,141.1062,271.6271,88.4561,6.7053e-06,5.94e-06,0.0,0 STARLINK-6339,1 56771U 23078E   23248.09052357  .00000594  00000-0  67053-5 0  9990,2 56771  69.9980 141.1062 0003173 271.6271  88.4561 15.69925486 15502,6737.247,91.724,361.25,356.974,0.0
56771.0,STARLINK-6339,PAYLOAD,2023-09-06 02:38:23,15.6992138,0.0003157,69.997,138.24,266.1729,93.9106,1.6995e-05,1.831e-05,0.0,0 STARLINK-6339,1 56771U 23078E   23249.10999467  .00001831  00000-0  16995-4 0  9998,2 56771  69.9970 138.2400 0003157 266.1729  93.9106 15.69921380 15665,6737.259,91.724,361.251,356.997,0.0
56771.0,STARLINK-6339,PAYLOAD,2023-09-06 07:13:54,15.69669942,0.0013872,69.9969,137.703,249.2052,110.7658,-0.00027096,-0.00032509,0.0,0 STARLINK-6339,1 56771U 23078E   23249.30132493 -.00032509  00000-0 -27096-3 0  9999,2 56771  69.9969 137.7030 0013872 249.2052 110.7658 15.69669942 15698,6737.978,91.739,369.19,350.496,0.0
56771.0,STARLINK-6339,PAYLOAD,2023-09-06 20:00:01,15.69963275,0.0003425,69.999,136.2059,269.9891,217.0262,-0.00039816,-0.00047894,0.0,0 STARLINK-6339,1 56771U 23078E   23249.83334491 -.00047894  00000-0 -39816-3 0  9995,2 56771  69.9990 136.2059 0003425 269.9891 217.0262 15.69963275 15777,6737.139,91.722,361.312,356.697,0.0
56771.0,STARLINK-6339,PAYLOAD,2023-09-06 22:00:00,15.69957502,0.0003429,69.9989,135.9716,272.3334,325.5267,-0.00044949,-0.0005399,0.0,0 STARLINK-6339,1 56771U 23078E   23249.91667824 -.00053990  00000-0 -44949-3 0  9990,2 56771  69.9989 135.9716 0003429 272.3334 325.5267 15.69957502  5871,6737.156,91.722,361.331,356.71,0.0
56771.0,STARLINK-6339,PAYLOAD,2023-09-07 00:00:00,15.69948634,0.0003409,69.999,135.7373,274.9612,73.741,-0.00041033,-0.00049313,0.0,0 STARLINK-6339,1 56771U 23078E   23250.00001157 -.00049313  00000-0 -41033-3 0  9998,2 56771  69.9990 135.7373 0003409 274.9612  73.7410 15.69948634  5884,6737.181,91.723,361.343,356.749,0.0
56771.0,STARLINK-6339,PAYLOAD,2023-09-07 19:55:41,15.69926545,0.0003204,69.9953,133.4029,265.6983,94.3846,1.2664e-05,1.31e-05,0.0,0 STARLINK-6339,1 56771U 23078E   23250.83034246  .00001310  00000-0  12664-4 0  9996,2 56771  69.9953 133.4029 0003204 265.6983  94.3846 15.69926545 15674,6737.244,91.724,361.268,356.951,0.0
56771.0,STARLINK-6339,PAYLOAD,2023-09-08 02:02:42,15.69916233,0.0003391,69.9968,132.6868,267.6402,92.4405,1.2216e-06,-6.6e-07,0.0,0 STARLINK-6339,1 56771U 23078E   23251.08521765 -.00000066  00000-0  12216-5 0  9993,2 56771  69.9968 132.6868 0003391 267.6402  92.4405 15.69916233 15973,6737.274,91.725,361.423,356.854,0.0
56771.0,STARLINK-6339,PAYLOAD,2023-09-08 09:41:27,15.69928708,0.0003595,69.9968,131.7907,266.7735,93.305,8.4481e-06,8.03e-06,0.0,0 STARLINK-6339,1 56771U 23078E   23251.40379026  .00000803  00000-0  84481-5 0  9991,2 56771  69.9968 131.7907 0003595 266.7735  93.3050 15.69928708 16025,6737.238,91.724,361.525,356.681,0.0
56771.0,STARLINK-6339,PAYLOAD,2023-09-08 18:51:58,15.69901606,0.0003502,69.997,130.7154,269.0943,90.9851,1.4781e-05,1.563e-05,0.0,0 STARLINK-6339,1 56771U 23078E   23251.78609811  .00001563  00000-0  14781-4 0  9999,2 56771  69.9970 130.7154 0003502 269.0943  90.9851 15.69901606 16082,6737.316,91.725,361.54,356.821,0.0
56771.0,STARLINK-6339,PAYLOAD,2023-09-09 02:30:44,15.69910693,0.0003498,69.997,129.8198,270.6939,89.3856,2.3674e-05,2.633e-05,0.0,0 STARLINK-6339,1 56771U 23078E   23252.10467887  .00002633  00000-0  23674-4 0  9991,2 56771  69.9970 129.8198 0003498 270.6939  89.3856 15.69910693 16135,6737.29,91.725,361.511,356.798,0.0
56771.0,STARLINK-6339,PAYLOAD,2023-09-09 13:12:59,15.69918411,0.000359,69.9965,128.5658,268.2643,91.8141,2.9491e-05,3.334e-05,0.0,0 STARLINK-6339,1 56771U 23078E   23252.55069252  .00003334  00000-0  29491-4 0  9996,2 56771  69.9965 128.5658 0003590 268.2643  91.8141 15.69918411 15943,6737.267,91.725,361.551,356.714,0.0
56771.0,STARLINK-6339,PAYLOAD,2023-09-09 19:19:59,15.69927787,0.000356,69.9966,127.8492,269.8144,90.2644,3.782e-05,4.338e-05,0.0,0 STARLINK-6339,1 56771U 23078E   23252.80555326  .00004338  00000-0  37820-4 0  9996,2 56771  69.9966 127.8492 0003560 269.8144  90.2644 15.69927787 16243,6737.241,91.724,361.504,356.707,0.0
56771.0,STARLINK-6339,PAYLOAD,2023-09-10 01:27:01,15.69916308,0.0003498,69.9966,127.1329,269.0588,91.0207,2.657e-05,2.982e-05,0.0,0 STARLINK-6339,1 56771U 23078E   23253.06043215  .00002982  00000-0  26570-4 0  9997,2 56771  69.9966 127.1329 0003498 269.0588  91.0207 15.69916308 16284,6737.273,91.725,361.495,356.782,0.0
56771.0,STARLINK-6339,PAYLOAD,2023-09-10 09:05:47,15.69900499,0.000368,69.9982,126.2371,264.741,95.3366,-3.6011e-05,-4.537e-05,0.0,0 STARLINK-6339,1 56771U 23078E   23253.37902389 -.00004537  00000-0 -36011-4 0  9998,2 56771  69.9982 126.2371 0003680 264.7410  95.3366 15.69900499 16331,6737.319,91.726,361.663,356.704,0.0
56771.0,STARLINK-6339,PAYLOAD,2023-09-10 12:09:17,15.69907186,0.0003601,69.9982,125.8786,271.2315,88.8468,-1.6874e-05,-2.24e-05,0.0,0 STARLINK-6339,1 56771U 23078E   23253.50645611 -.00002240  00000-0 -16874-4 0  9999,2 56771  69.9982 125.8786 0003601 271.2315  88.8468 15.69907186 16099,6737.3,91.725,361.591,356.738,0.0
56771.0,STARLINK-6339,PAYLOAD,2023-09-10 18:16:17,15.69930753,0.00035,69.9982,125.1624,270.1739,89.9056,1.5108e-05,1.605e-05,0.0,0 STARLINK-6339,1 56771U 23078E   23253.76131235  .00001605  00000-0  15108-4 0  9990,2 56771  69.9982 125.1624 0003500 270.1739  89.9056 15.69930753 16393,6737.232,91.724,361.455,356.739,0.0
56771.0,STARLINK-6339,PAYLOAD,2023-09-11 01:55:02,15.69963153,0.0003551,69.9992,124.2668,272.087,87.9919,0.00040856,0.00049284,0.0,0 STARLINK-6339,1 56771U 23078E   23254.07989431  .00049284  00000-0  40856-3 0  9996,2 56771  69.9992 124.2668 0003551 272.0870  87.9919 15.69963153 16447,6737.139,91.722,361.397,356.612,0.0
56771.0,STARLINK-6339,PAYLOAD,2023-09-11 17:12:34,15.69954177,0.0003585,69.9991,122.4754,273.1993,86.8792,0.00026556,0.00031881,0.0,0 STARLINK-6339,1 56771U 23078E   23254.71706137  .00031881  00000-0  26556-3 0  9992,2 56771  69.9991 122.4754 0003585 273.1993  86.8792 15.69954177 16541,6737.165,91.722,361.445,356.615,0.0
56771.0,STARLINK-6339,PAYLOAD,2023-09-12 00:51:19,15.69941287,0.0004594,69.999,121.5793,275.263,84.8041,0.00019392,0.00023191,0.0,0 STARLINK-6339,1 56771U 23078E   23255.03564411  .00023191  00000-0  19392-3 0  9990,2 56771  69.9990 121.5793 0004594 275.2630  84.8041 15.69941287 16593,6737.202,91.723,362.162,355.972,0.0
56771.0,STARLINK-6339,PAYLOAD,2023-09-12 17:40:36,15.69922024,0.0003677,69.9991,119.608,271.5861,88.4914,2.4454e-05,2.728e-05,0.0,0 STARLINK-6339,1 56771U 23078E   23255.73653260  .00002728  00000-0  24454-4 0  9997,2 56771  69.9991 119.6080 0003677 271.5861  88.4914 15.69922024 16707,6737.257,91.724,361.599,356.645,0.0
56771.0,STARLINK-6339,PAYLOAD,2023-09-12 19:12:21,15.69932272,0.0003489,69.9985,119.429,266.2834,93.7962,4.749e-05,5.503e-05,0.0,0 STARLINK-6339,1 56771U 23078E   23255.80024736  .00005503  00000-0  47490-4 0  9994,2 56771  69.9985 119.4290 0003489 266.2834  93.7962 15.69932272 16453,6737.228,91.724,361.443,356.742,0.0
56771.0,STARLINK-6339,PAYLOAD,2023-09-13 01:19:21,15.69944782,0.0003553,69.9985,118.7125,265.5994,94.4796,7.2564e-05,8.529e-05,0.0,0 STARLINK-6339,1 56771U 23078E   23256.05510845  .00008529  00000-0  72564-4 0  9994,2 56771  69.9985 118.7125 0003553 265.5994  94.4796 15.69944782 16758,6737.192,91.723,361.451,356.663,0.0
56771.0,STARLINK-6339,PAYLOAD,2023-09-13 18:08:38,15.69926671,0.0003653,69.9984,116.7428,267.4528,92.6249,1.3836e-05,1.451e-05,0.0,0 STARLINK-6339,1 56771U 23078E   23256.75599711  .00001451  00000-0  13836-4 0  9994,2 56771  69.9984 116.7428 0003653 267.4528  92.6249 15.69926671 16868,6737.244,91.724,361.57,356.648,0.0
56771.0,STARLINK-6339,PAYLOAD,2023-09-14 00:15:39,15.69912361,0.0003369,69.9995,116.0254,270.398,89.683,-2.0074e-05,-2.625e-05,0.0,0 STARLINK-6339,1 56771U 23078E   23257.01087128 -.00002625  00000-0 -20074-4 0  9996,2 56771  69.9995 116.0254 0003369 270.3980  89.6830 15.69912361 16907,6737.285,91.725,361.42,356.88,0.0
56771.0,STARLINK-6339,PAYLOAD,2023-09-14 09:26:10,15.69921809,0.0003516,69.9986,114.9507,269.8257,90.2536,1.8497e-05,2.012e-05,0.0,0 STARLINK-6339,1 56771U 23078E   23257.39317260  .00002012  00000-0  18497-4 0  9994,2 56771  69.9986 114.9507 0003516 269.8257  90.2536 15.69921809 16705,6737.258,91.724,361.492,356.754,0.0
56771.0,STARLINK-6339,PAYLOAD,2023-09-14 17:04:55,15.69914717,0.0003382,69.998,114.0538,269.8878,90.193,1.87e-05,2.035e-05,0.0,0 STARLINK-6339,1 56771U 23078E   23257.71175545  .00002035  00000-0  18700-4 0  9990,2 56771  69.9980 114.0538 0003382 269.8878  90.1930 15.69914717 17016,6737.278,91.725,361.422,356.864,0.0
56771.0,STARLINK-6339,PAYLOAD,2023-09-15 08:22:26,15.69945003,0.0003576,69.9986,112.2615,263.7902,96.2887,0.00011918,0.00014155,0.0,0 STARLINK-6339,1 56771U 23078E   23258.34891540  .00014155  00000-0  11918-3 0  9999,2 56771  69.9986 112.2615 0003576 263.7902  96.2887 15.69945003 17115,6737.191,91.723,361.466,356.647,0.0
56771.0,STARLINK-6339,PAYLOAD,2023-09-15 17:32:57,15.69922603,0.0003652,69.9978,111.1883,278.0054,82.0728,-2.938e-06,-5.66e-06,0.0,0 STARLINK-6339,1 56771U 23078E   23258.73122044 -.00000566  00000-0 -29380-5 0  9995,2 56771  69.9978 111.1883 0003652 278.0054  82.0728 15.69922603 17177,6737.255,91.724,361.581,356.66,0.0
